[{"OBJECT_NAME":"STARLINK-4254","OBJECT_ID":"2022-076N","EPOCH":"2026-03-26T12:10:04.395648","MEAN_MOTION":15.08839492,"ECCENTRICITY":0.0001355,"INCLINATION":53.2203,"RA_OF_ASC_NODE":18.5374,"ARG_OF_PERICENTER":87.8508,"MEAN_ANOMALY":272.2639,"EPHEMERIS_TYPE":0,"CLASSIFICATION_TYPE":"U","NORAD_CAT_ID":52998,"ELEMENT_SET_NO":999,"REV_AT_EPOCH":20538,"BSTAR":6.8754e-5,"MEAN_MOTION_DOT":8.06e-6,"MEAN_MOTION_DDOT":0},{"OBJECT_NAME":"STARLINK-4217","OBJECT_ID":"2022-076P","EPOCH":"2026-03-26T02:27:10.430784","MEAN_MOTION":15.08840373,"ECCENTRICITY":0.00015659,"INCLINATION":53.219,"RA_OF_ASC_NODE":20.4405,"ARG_OF_PERICENTER":87.7449,"MEAN_ANOMALY":272.3723,"EPHEMERIS_TYPE":0,"CLASSIFICATION_TYPE":"U","NORAD_CAT_ID":52999,"ELEMENT_SET_NO":999,"REV_AT_EPOCH":20532,"BSTAR":1.5684232e-5,"MEAN_MOTION_DOT":-3.8e-7,"MEAN_MOTION_DDOT":0},{"OBJECT_NAME":"STARLINK-4194","OBJECT_ID":"2022-076Q","EPOCH":"2026-03-26T12:20:41.103168","MEAN_MOTION":15.08840278,"ECCENTRICITY":0.0001469,"INCLINATION":53.2202,"RA_OF_ASC_NODE":18.5937,"ARG_OF_PERICENTER":89.9576,"MEAN_ANOMALY":270.1585,"EPHEMERIS_TYPE":0,"CLASSIFICATION_TYPE":"U","NORAD_CAT_ID":53000,"ELEMENT_SET_NO":999,"REV_AT_EPOCH":20538,"BSTAR":0.00010126,"MEAN_MOTION_DOT":1.324e-5,"MEAN_MOTION_DDOT":0},{"OBJECT_NAME":"STARLINK-4190","OBJECT_ID":"2022-076R","EPOCH":"2026-03-26T02:21:51.435936","MEAN_MOTION":15.08831678,"ECCENTRICITY":0.00014426,"INCLINATION":53.2188,"RA_OF_ASC_NODE":20.4595,"ARG_OF_PERICENTER":86.8019,"MEAN_ANOMALY":273.3138,"EPHEMERIS_TYPE":0,"CLASSIFICATION_TYPE":"U","NORAD_CAT_ID":53001,"ELEMENT_SET_NO":999,"REV_AT_EPOCH":20532,"BSTAR":-0.00087001575,"MEAN_MOTION_DOT":-0.00014104,"MEAN_MOTION_DDOT":0},{"OBJECT_NAME":"STARLINK-4121","OBJECT_ID":"2022-076S","EPOCH":"2026-03-26T12:15:23.160672","MEAN_MOTION":15.08840426,"ECCENTRICITY":0.0001413,"INCLINATION":53.2196,"RA_OF_ASC_NODE":18.6072,"ARG_OF_PERICENTER":85.8584,"MEAN_ANOMALY":274.257,"EPHEMERIS_TYPE":0,"CLASSIFICATION_TYPE":"U","NORAD_CAT_ID":53002,"ELEMENT_SET_NO":999,"REV_AT_EPOCH":20538,"BSTAR":-8.7596e-5,"MEAN_MOTION_DOT":-1.682e-5,"MEAN_MOTION_DDOT":0},{"OBJECT_NAME":"STARLINK-4255","OBJECT_ID":"2022-076T","EPOCH":"2026-03-26T02:11:16.657728","MEAN_MOTION":15.08829342,"ECCENTRICITY":0.00013377,"INCLINATION":53.2179,"RA_OF_ASC_NODE":20.493,"ARG_OF_PERICENTER":60.3322,"MEAN_ANOMALY":299.7804,"EPHEMERIS_TYPE":0,"CLASSIFICATION_TYPE":"U","NORAD_CAT_ID":53003,"ELEMENT_SET_NO":999,"REV_AT_EPOCH":20532,"BSTAR":-9.5321651e-5,"MEAN_MOTION_DOT":-1.804e-5,"MEAN_MOTION_DDOT":0},{"OBJECT_NAME":"STARLINK-4253","OBJECT_ID":"2022-076U","EPOCH":"2026-03-26T12:04:47.510688","MEAN_MOTION":15.08836868,"ECCENTRICITY":0.0001505,"INCLINATION":53.2195,"RA_OF_ASC_NODE":18.6411,"ARG_OF_PERICENTER":88.2466,"MEAN_ANOMALY":271.8698,"EPHEMERIS_TYPE":0,"CLASSIFICATION_TYPE":"U","NORAD_CAT_ID":53004,"ELEMENT_SET_NO":999,"REV_AT_EPOCH":20538,"BSTAR":-3.6351e-6,"MEAN_MOTION_DOT":-3.46e-6,"MEAN_MOTION_DDOT":0},{"OBJECT_NAME":"STARLINK-4288","OBJECT_ID":"2022-076V","EPOCH":"2026-03-26T02:05:58.711776","MEAN_MOTION":15.08840073,"ECCENTRICITY":0.00012873,"INCLINATION":53.2193,"RA_OF_ASC_NODE":20.5075,"ARG_OF_PERICENTER":93.2706,"MEAN_ANOMALY":266.8434,"EPHEMERIS_TYPE":0,"CLASSIFICATION_TYPE":"U","NORAD_CAT_ID":53005,"ELEMENT_SET_NO":999,"REV_AT_EPOCH":20532,"BSTAR":8.9854216e-5,"MEAN_MOTION_DOT":1.142e-5,"MEAN_MOTION_DDOT":0},{"OBJECT_NAME":"STARLINK-4290","OBJECT_ID":"2022-076W","EPOCH":"2026-03-26T02:16:34.663296","MEAN_MOTION":15.08837495,"ECCENTRICITY":0.00014461,"INCLINATION":53.219,"RA_OF_ASC_NODE":20.4734,"ARG_OF_PERICENTER":88.5175,"MEAN_ANOMALY":271.5983,"EPHEMERIS_TYPE":0,"CLASSIFICATION_TYPE":"U","NORAD_CAT_ID":53006,"ELEMENT_SET_NO":999,"REV_AT_EPOCH":20532,"BSTAR":3.384254e-5,"MEAN_MOTION_DOT":2.51e-6,"MEAN_MOTION_DDOT":0},{"OBJECT_NAME":"STARLINK-4215","OBJECT_ID":"2022-076X","EPOCH":"2026-03-26T05:06:08.906112","MEAN_MOTION":15.08846981,"ECCENTRICITY":0.0001417,"INCLINATION":53.2198,"RA_OF_ASC_NODE":19.9453,"ARG_OF_PERICENTER":89.9853,"MEAN_ANOMALY":270.1301,"EPHEMERIS_TYPE":0,"CLASSIFICATION_TYPE":"U","NORAD_CAT_ID":53007,"ELEMENT_SET_NO":999,"REV_AT_EPOCH":20534,"BSTAR":8.6505e-5,"MEAN_MOTION_DOT":1.089e-5,"MEAN_MOTION_DDOT":0},{"OBJECT_NAME":"STARLINK-4275","OBJECT_ID":"2022-076Y","EPOCH":"2026-03-26T02:00:40.758912","MEAN_MOTION":15.08840841,"ECCENTRICITY":0.00015473,"INCLINATION":53.2194,"RA_OF_ASC_NODE":20.5127,"ARG_OF_PERICENTER":96.7132,"MEAN_ANOMALY":263.4036,"EPHEMERIS_TYPE":0,"CLASSIFICATION_TYPE":"U","NORAD_CAT_ID":53008,"ELEMENT_SET_NO":999,"REV_AT_EPOCH":20532,"BSTAR":9.8881772e-5,"MEAN_MOTION_DOT":1.286e-5,"MEAN_MOTION_DDOT":0},{"OBJECT_NAME":"STARLINK-4277","OBJECT_ID":"2022-076Z","EPOCH":"2026-03-26T01:35:30.277824","MEAN_MOTION":15.08840708,"ECCENTRICITY":0.00015523,"INCLINATION":53.2195,"RA_OF_ASC_NODE":10.6006,"ARG_OF_PERICENTER":88.5887,"MEAN_ANOMALY":271.5283,"EPHEMERIS_TYPE":0,"CLASSIFICATION_TYPE":"U","NORAD_CAT_ID":53009,"ELEMENT_SET_NO":999,"REV_AT_EPOCH":20545,"BSTAR":8.2240866e-5,"MEAN_MOTION_DOT":1.021e-5,"MEAN_MOTION_DDOT":0},{"OBJECT_NAME":"STARLINK-4263","OBJECT_ID":"2022-076AA","EPOCH":"2026-03-26T04:34:18.399936","MEAN_MOTION":15.08841723,"ECCENTRICITY":0.00014772,"INCLINATION":53.2181,"RA_OF_ASC_NODE":19.775,"ARG_OF_PERICENTER":81.1122,"MEAN_ANOMALY":279.0037,"EPHEMERIS_TYPE":0,"CLASSIFICATION_TYPE":"U","NORAD_CAT_ID":53010,"ELEMENT_SET_NO":999,"REV_AT_EPOCH":20534,"BSTAR":5.4358258e-5,"MEAN_MOTION_DOT":5.77e-6,"MEAN_MOTION_DDOT":0},{"OBJECT_NAME":"STARLINK-4265","OBJECT_ID":"2022-076AB","EPOCH":"2026-03-26T04:40:58.571040","MEAN_MOTION":15.08839176,"ECCENTRICITY":0.00013842,"INCLINATION":53.2196,"RA_OF_ASC_NODE":10.0236,"ARG_OF_PERICENTER":93.1782,"MEAN_ANOMALY":266.9369,"EPHEMERIS_TYPE":0,"CLASSIFICATION_TYPE":"U","NORAD_CAT_ID":53011,"ELEMENT_SET_NO":999,"REV_AT_EPOCH":20547,"BSTAR":9.3445746e-5,"MEAN_MOTION_DOT":1.2e-5,"MEAN_MOTION_DDOT":0},{"OBJECT_NAME":"STARLINK-4271","OBJECT_ID":"2022-076AC","EPOCH":"2026-03-26T01:50:05.388864","MEAN_MOTION":15.08838428,"ECCENTRICITY":0.00013989,"INCLINATION":53.2186,"RA_OF_ASC_NODE":20.5555,"ARG_OF_PERICENTER":100.9497,"MEAN_ANOMALY":259.1652,"EPHEMERIS_TYPE":0,"CLASSIFICATION_TYPE":"U","NORAD_CAT_ID":53012,"ELEMENT_SET_NO":999,"REV_AT_EPOCH":20532,"BSTAR":0.00010332054,"MEAN_MOTION_DOT":1.357e-5,"MEAN_MOTION_DDOT":0},{"OBJECT_NAME":"STARLINK-4177","OBJECT_ID":"2022-076AD","EPOCH":"2026-03-26T04:30:22.907232","MEAN_MOTION":15.08843384,"ECCENTRICITY":0.00011313,"INCLINATION":53.2191,"RA_OF_ASC_NODE":10.0561,"ARG_OF_PERICENTER":85.2347,"MEAN_ANOMALY":274.8774,"EPHEMERIS_TYPE":0,"CLASSIFICATION_TYPE":"U","NORAD_CAT_ID":53013,"ELEMENT_SET_NO":999,"REV_AT_EPOCH":20547,"BSTAR":0.00010764446,"MEAN_MOTION_DOT":1.426e-5,"MEAN_MOTION_DDOT":0},{"OBJECT_NAME":"STARLINK-4183","OBJECT_ID":"2022-076AE","EPOCH":"2026-03-26T04:51:34.972704","MEAN_MOTION":15.08844788,"ECCENTRICITY":0.00014512,"INCLINATION":53.2201,"RA_OF_ASC_NODE":9.9908,"ARG_OF_PERICENTER":91.1055,"MEAN_ANOMALY":269.0104,"EPHEMERIS_TYPE":0,"CLASSIFICATION_TYPE":"U","NORAD_CAT_ID":53014,"ELEMENT_SET_NO":999,"REV_AT_EPOCH":20547,"BSTAR":-3.129166e-5,"MEAN_MOTION_DOT":-7.86e-6,"MEAN_MOTION_DDOT":0},{"OBJECT_NAME":"STARLINK-4262","OBJECT_ID":"2022-076AF","EPOCH":"2026-03-26T12:16:42.551904","MEAN_MOTION":15.08840903,"ECCENTRICITY":0.000138,"INCLINATION":53.2194,"RA_OF_ASC_NODE":8.6038,"ARG_OF_PERICENTER":88.7396,"MEAN_ANOMALY":271.3755,"EPHEMERIS_TYPE":0,"CLASSIFICATION_TYPE":"U","NORAD_CAT_ID":53015,"ELEMENT_SET_NO":999,"REV_AT_EPOCH":20552,"BSTAR":0.00024885,"MEAN_MOTION_DOT":3.675e-5,"MEAN_MOTION_DDOT":0},{"OBJECT_NAME":"STARLINK-4283","OBJECT_ID":"2022-076AG","EPOCH":"2026-03-26T04:35:40.912800","MEAN_MOTION":15.08839653,"ECCENTRICITY":0.00012411,"INCLINATION":53.2187,"RA_OF_ASC_NODE":10.0398,"ARG_OF_PERICENTER":122.0152,"MEAN_ANOMALY":238.0961,"EPHEMERIS_TYPE":0,"CLASSIFICATION_TYPE":"U","NORAD_CAT_ID":53016,"ELEMENT_SET_NO":999,"REV_AT_EPOCH":20547,"BSTAR":-1.0885538e-5,"MEAN_MOTION_DOT":-4.61e-6,"MEAN_MOTION_DDOT":0},{"OBJECT_NAME":"STARLINK-4281","OBJECT_ID":"2022-076AH","EPOCH":"2026-03-26T12:11:24.752832","MEAN_MOTION":15.08844784,"ECCENTRICITY":0.000166,"INCLINATION":53.2199,"RA_OF_ASC_NODE":8.6207,"ARG_OF_PERICENTER":83.9804,"MEAN_ANOMALY":276.1378,"EPHEMERIS_TYPE":0,"CLASSIFICATION_TYPE":"U","NORAD_CAT_ID":53017,"ELEMENT_SET_NO":999,"REV_AT_EPOCH":20553,"BSTAR":6.7661e-5,"MEAN_MOTION_DOT":7.89e-6,"MEAN_MOTION_DDOT":0},{"OBJECT_NAME":"STARLINK-4279","OBJECT_ID":"2022-076AJ","EPOCH":"2026-03-26T12:00:01.999296","MEAN_MOTION":15.10475055,"ECCENTRICITY":0.000155,"INCLINATION":53.2183,"RA_OF_ASC_NODE":8.7667,"ARG_OF_PERICENTER":82.6761,"MEAN_ANOMALY":111.5823,"EPHEMERIS_TYPE":0,"CLASSIFICATION_TYPE":"U","NORAD_CAT_ID":53018,"ELEMENT_SET_NO":999,"REV_AT_EPOCH":578,"BSTAR":-0.00070782,"MEAN_MOTION_DOT":-0.00012056,"MEAN_MOTION_DDOT":0},{"OBJECT_NAME":"STARLINK-4282","OBJECT_ID":"2022-076AK","EPOCH":"2026-03-26T12:00:49.228128","MEAN_MOTION":15.08839782,"ECCENTRICITY":0.0001457,"INCLINATION":53.2192,"RA_OF_ASC_NODE":8.6543,"ARG_OF_PERICENTER":89.6926,"MEAN_ANOMALY":270.4233,"EPHEMERIS_TYPE":0,"CLASSIFICATION_TYPE":"U","NORAD_CAT_ID":53019,"ELEMENT_SET_NO":999,"REV_AT_EPOCH":20552,"BSTAR":9.6447e-5,"MEAN_MOTION_DOT":1.247e-5,"MEAN_MOTION_DDOT":0},{"OBJECT_NAME":"STARLINK-4287","OBJECT_ID":"2022-076AL","EPOCH":"2026-03-26T12:22:01.011072","MEAN_MOTION":15.08838796,"ECCENTRICITY":0.0001235,"INCLINATION":53.2185,"RA_OF_ASC_NODE":8.585,"ARG_OF_PERICENTER":95.9364,"MEAN_ANOMALY":264.1769,"EPHEMERIS_TYPE":0,"CLASSIFICATION_TYPE":"U","NORAD_CAT_ID":53020,"ELEMENT_SET_NO":999,"REV_AT_EPOCH":20552,"BSTAR":3.9638e-5,"MEAN_MOTION_DOT":3.43e-6,"MEAN_MOTION_DDOT":0}]
